{
  "norad_id": 14129,
  "name": "PHASE 3B (AO-10)",
  "history": [
    {
      "epoch": "2026-03-25T08:37:11.679744",
      "apogee_km": 35491.42597820989,
      "perigee_km": 3955.4886203574324,
      "latitude_deg": 25.660105761538997,
      "longitude_deg": 19.3796441599261,
      "semi_major_axis_km": 26101.59429928366,
      "eccentricity": 0.60409983,
      "inclination_deg": 25.9114,
      "raan_deg": 233.602,
      "arg_perigee_deg": 92.4738,
      "mean_anomaly_deg": 333.4977,
      "mean_motion_rev_day": 2.05874335
    }
  ]
}